[{"OBJECT_NAME":"HONGHU 2","OBJECT_ID":"2023-193C","EPOCH":"2026-03-09T23:21:07.139520","MEAN_MOTION":15.21543878,"ECCENTRICITY":0.00399876,"INCLINATION":97.2779,"RA_OF_ASC_NODE":62.3901,"ARG_OF_PERICENTER":264.1736,"MEAN_ANOMALY":95.4941,"EPHEMERIS_TYPE":0,"CLASSIFICATION_TYPE":"U","NORAD_CAT_ID":58555,"ELEMENT_SET_NO":999,"REV_AT_EPOCH":8691,"BSTAR":0.0061775359,"MEAN_MOTION_DOT":0.00144707,"MEAN_MOTION_DDOT":0},{"OBJECT_NAME":"STARLINK-35930","OBJECT_ID":"2025-270M","EPOCH":"2026-03-09T00:25:50.755584","MEAN_MOTION":15.27617096,"ECCENTRICITY":0.00024815,"INCLINATION":43.0035,"RA_OF_ASC_NODE":59.9242,"ARG_OF_PERICENTER":292.8143,"MEAN_ANOMALY":67.2446,"EPHEMERIS_TYPE":0,"CLASSIFICATION_TYPE":"U","NORAD_CAT_ID":66599,"ELEMENT_SET_NO":999,"REV_AT_EPOCH":1760,"BSTAR":0.001451001,"MEAN_MOTION_DOT":0.0003993,"MEAN_MOTION_DDOT":0}]
